[{"OBJECT_NAME":"STARLINK-36351","OBJECT_ID":"2026-018U","EPOCH":"2026-03-09T17:07:47.246592","MEAN_MOTION":15.7519734,"ECCENTRICITY":0.00013103,"INCLINATION":97.284,"RA_OF_ASC_NODE":134.5573,"ARG_OF_PERICENTER":81.8795,"MEAN_ANOMALY":278.2619,"EPHEMERIS_TYPE":0,"CLASSIFICATION_TYPE":"U","NORAD_CAT_ID":67607,"ELEMENT_SET_NO":999,"REV_AT_EPOCH":731,"BSTAR":0.0020697965,"MEAN_MOTION_DOT":0.00320575,"MEAN_MOTION_DDOT":0},{"OBJECT_NAME":"FENGYUN 1C DEB","OBJECT_ID":"1999-025CUE","EPOCH":"2026-02-18T09:12:07.487136","MEAN_MOTION":15.64460458,"ECCENTRICITY":0.00384301,"INCLINATION":98.1181,"RA_OF_ASC_NODE":202.4936,"ARG_OF_PERICENTER":104.8925,"MEAN_ANOMALY":255.6593,"EPHEMERIS_TYPE":0,"CLASSIFICATION_TYPE":"U","NORAD_CAT_ID":32184,"ELEMENT_SET_NO":999,"REV_AT_EPOCH":99453,"BSTAR":0.002023567,"MEAN_MOTION_DOT":0.00206139,"MEAN_MOTION_DDOT":0}]
